METEOR-M2 2             
1 44387U 19038A   22021.47956907 -.00000011  00000-0  14605-4 0  9994
2 44387  98.7020 343.6040 0001768  25.2514 334.8750 14.23697440132494
